IRIDIUM 138             
1 43071U 17083B   26198.24716359  .00000141  00000+0  43166-4 0  9996
2 43071  86.3999 309.1504 0002061  92.8202 267.3230 14.34219120448449
IRIDIUM 116             
1 43072U 17083C   26198.28522066  .00000125  00000+0  37483-4 0  9998
2 43072  86.3985 309.4198 0002498  97.5580 262.5899 14.34218141448486
IRIDIUM 130             
1 43073U 17083D   26198.60235351  .00000138  00000+0  42110-4 0  9990
2 43073  86.3994 309.5657 0002316 100.5746 259.5711 14.34218479448478
IRIDIUM 151             
1 43074U 17083E   26198.71651828  .00000101  00000+0  29148-4 0  9990
2 43074  86.3988 309.2981 0002271  95.1269 265.0186 14.34218291448513
IRIDIUM 134             
1 43075U 17083F   26198.26619455  .00000039  00000+0  70115-5 0  9992
2 43075  86.3990 309.4946 0002245  95.7706 264.3746 14.34217795448414
IRIDIUM 137             
1 43076U 17083G   26198.55795457  .00000037  00000+0  62310-5 0  9998
2 43076  86.3991 309.4662 0002680  93.2307 266.9195 14.34217870448526
IRIDIUM 141             
1 43077U 17083H   26198.55161045  .00000079  00000+0  21145-4 0  9995
2 43077  86.3985 309.2978 0002181  93.8087 266.3358 14.34217913448528
IRIDIUM 153             
1 43078U 17083J   26198.22471525  .00000051  00000+0  11129-4 0  9998
2 43078  86.3959 277.9134 0002132  95.2478 264.8961 14.34217841449581
IRIDIUM 131             
1 43079U 17083K   26198.32961999  .00000060  00000+0  14271-4 0  9990
2 43079  86.3990 309.5786 0002227  94.5395 265.6055 14.34218109448420
IRIDIUM 144             
1 43249U 18030A   26198.16128876  .00000088  00000+0  24429-4 0  9999
2 43249  86.3955 277.8683 0002400  96.6450 263.5019 14.34218360434433
IRIDIUM 149             
1 43250U 18030B   26198.65601170  .00000067  00000+0  16953-4 0  9998
2 43250  86.3954 277.6280 0002255  93.5233 266.6221 14.34218041434523
IRIDIUM 157             
1 43251U 18030C   26198.18666169  .00000138  00000+0  42136-4 0  9997
2 43251  86.3958 277.8784 0002269  94.1706 265.9750 14.34218501434436
IRIDIUM 140             
1 43252U 18030D   26198.62430115  .00000134  00000+0  40918-4 0  9999
2 43252  86.3957 277.7078 0002252  95.6876 264.4577 14.34218170434553
IRIDIUM 145             
1 43253U 18030E   26198.68138247  .00000085  00000+0  23216-4 0  9994
2 43253  86.3956 277.6562 0002543  98.4503 261.6981 14.34217565434499
IRIDIUM 146             
1 43254U 18030F   26198.66235490  .00000059  00000+0  13837-4 0  9990
2 43254  86.3957 277.6762 0002384  95.8297 264.3171 14.34217620434502
IRIDIUM 148             
1 43255U 18030G   26198.70041198  .00000136  00000+0  41563-4 0  9999
2 43255  86.3959 277.7037 0002340  93.2639 266.8824 14.34218606434546
IRIDIUM 142             
1 43256U 18030H   26198.66869756  .00000046  00000+0  94888-5 0  9992
2 43256  86.3954 277.6049 0002435  95.4152 264.7321 14.34217866434505
IRIDIUM 150             
1 43257U 18030J   26198.63698337  .00000138  00000+0  42368-4 0  9992
2 43257  86.3958 277.7355 0002292  96.3396 263.8061 14.34217495434523
IRIDIUM 143             
1 43258U 18030K   26198.61795725  .00000091  00000+0  25562-4 0  9995
2 43258  86.3961 277.8373 0002367  97.1566 262.9899 14.34217972434451
IRIDIUM 161             
1 43478U 18047C   26198.18924619  .00000151  00000+0  38757-4 0  9992
2 43478  86.4460  75.9240 0002227  80.7125 279.4328 14.43276266429460
IRIDIUM 152             
1 43479U 18047D   26198.17206328  .00000058  00000+0  13724-4 0  9995
2 43479  86.3933  75.7924 0002137  84.1747 275.9693 14.34218440426788
IRIDIUM 147             
1 43480U 18047E   26198.66678565  .00000063  00000+0  15324-4 0  9991
2 43480  86.3935  75.5912 0002286  87.9760 272.1697 14.34217498426851
IRIDIUM 110             
1 43481U 18047F   26198.04520898  .00000143  00000+0  43965-4 0  9990
2 43481  86.3938  75.9440 0002076  77.7019 282.4409 14.34219059426755
IRIDIUM 162             
1 43482U 18047G   26198.66826373  .00000165  00000+0  43135-4 0  9999
2 43482  86.4457  75.6141 0002198  86.9446 273.2006 14.43279190429520
IRIDIUM 160             
1 43569U 18061A   26198.54919485  .00000115  00000+0  34125-4 0  9999
2 43569  86.3939  44.0968 0002225  86.7335 273.4115 14.34217595417726
IRIDIUM 166             
1 43570U 18061B   26198.50479737  .00000028  00000+0  30949-5 0  9992
2 43570  86.3937  44.0655 0002289  89.8334 270.3124 14.34217721417741
IRIDIUM 158             
1 43571U 18061C   26198.54285220  .00000050  00000+0  10658-4 0  9998
2 43571  86.3938  44.0591 0002102  88.2543 271.8893 14.34217903417719
IRIDIUM 165             
1 43572U 18061D   26198.07984447  .00000051  00000+0  11069-4 0  9992
2 43572  86.3940  44.3002 0002278  90.0670 270.0787 14.34217437417679
IRIDIUM 155             
1 43573U 18061E   26198.53016752  .00000038  00000+0  65145-5 0  9999
2 43573  86.3936  43.9793 0002145  90.7200 269.4242 14.34217584417701
IRIDIUM 154             
1 43574U 18061F   26198.58090815  .00000030  00000+0  37774-5 0  9996
2 43574  86.3939  44.0932 0002311  89.8671 270.2790 14.34217539417762
IRIDIUM 163             
1 43575U 18061G   26198.49211257  .00000020  00000+0  11264-8 0  9990
2 43575  86.3934  44.0445 0002002  85.3177 274.8247 14.34217181417722
